NORAD_CAT_ID,OBJECT_NAME,OBJECT_TYPE,EPOCH,MEAN_MOTION,ECCENTRICITY,INCLINATION,RA_OF_ASC_NODE,ARG_OF_PERICENTER,MEAN_ANOMALY,BSTAR,MEAN_MOTION_DOT,MEAN_MOTION_DDOT,TLE_LINE0,TLE_LINE1,TLE_LINE2,SEMIMAJOR_AXIS,PERIOD,APOGEE,PERIGEE,DECAYED
51799.0,STARLINK-3637,PAYLOAD,2024-03-05 03:41:19,15.08826312,0.0001421,53.2181,46.5784,96.0142,264.1012,3.7176e-05,3.04e-06,0.0,0 STARLINK-3637,1 51799U 22017AH  24065.15370262  .00000304  00000-0  37176-4 0  9991,2 51799  53.2181  46.5784 0001421  96.0142 264.1012 15.08826312113037,6917.922,95.438,540.77,538.804,0.0
51799.0,STARLINK-3637,PAYLOAD,2024-03-05 08:27:28,15.08834595,0.0001548,53.2185,45.6844,110.8457,249.2701,-7.8171e-05,-1.532e-05,0.0,0 STARLINK-3637,1 51799U 22017AH  24065.35241514 -.00001532  00000-0 -78171-4 0  9996,2 51799  53.2185  45.6844 0001548 110.8457 249.2701 15.08834595113066,6917.897,95.438,540.833,538.691,0.0
51799.0,STARLINK-3637,PAYLOAD,2024-03-06 08:18:15,15.08840673,0.000136,53.2174,41.2258,94.6976,265.4171,0.00012155,1.647e-05,0.0,0 STARLINK-3637,1 51799U 22017AH  24066.34601704  .00001647  00000-0  12155-3 0  9991,2 51799  53.2174  41.2258 0001360  94.6976 265.4171 15.08840673113214,6917.878,95.438,540.684,538.803,0.0
51799.0,STARLINK-3637,PAYLOAD,2024-03-07 03:22:53,15.08839784,0.0001307,53.2173,37.6562,95.7719,264.3422,0.00026484,3.93e-05,0.0,0 STARLINK-3637,1 51799U 22017AH  24067.14090072  .00003930  00000-0  26484-3 0  9997,2 51799  53.2173  37.6562 0001307  95.7719 264.3422 15.08839784113339,6917.881,95.438,540.65,538.842,0.0
51799.0,STARLINK-3637,PAYLOAD,2024-03-07 14:30:35,15.08858563,0.0001293,53.2179,35.5785,95.6354,264.4786,0.00047895,7.347e-05,0.0,0 STARLINK-3637,1 51799U 22017AH  24067.60457187  .00007347  00000-0  47895-3 0  9997,2 51799  53.2179  35.5785 0001293  95.6354 264.4786 15.08858563113405,6917.824,95.436,540.583,538.794,0.0
51799.0,STARLINK-3637,PAYLOAD,2024-03-08 01:38:17,15.08832982,0.0001367,53.217,33.4938,85.7782,274.3366,-0.00010467,-1.953e-05,0.0,0 STARLINK-3637,1 51799U 22017AH  24068.06826144 -.00001953  00000-0 -10467-3 0  9995,2 51799  53.2170  33.4938 0001367  85.7782 274.3366 15.08832982113478,6917.902,95.438,540.713,538.821,0.0
51799.0,STARLINK-3637,PAYLOAD,2024-03-08 06:24:26,15.08840354,0.0001485,53.2177,32.6039,93.6612,266.455,3.2798e-05,2.34e-06,0.0,0 STARLINK-3637,1 51799U 22017AH  24068.26697864  .00000234  00000-0  32798-4 0  9993,2 51799  53.2177  32.6039 0001485  93.6612 266.4550 15.08840354113502,6917.879,95.438,540.772,538.717,0.0
51799.0,STARLINK-3637,PAYLOAD,2024-03-08 14:21:22,15.08851242,0.0001261,53.2168,31.1148,81.2758,278.8377,0.00024909,3.68e-05,0.0,0 STARLINK-3637,1 51799U 22017AH  24068.59817428  .00003680  00000-0  24909-3 0  9991,2 51799  53.2168  31.1148 0001261  81.2758 278.8377 15.08851242113550,6917.846,95.437,540.583,538.839,0.0
51799.0,STARLINK-3637,PAYLOAD,2024-03-09 03:04:27,15.08836753,0.0001783,53.2178,28.7372,82.6329,277.4865,-6.7291e-05,-1.359e-05,0.0,0 STARLINK-3637,1 51799U 22017AH  24069.12810165 -.00001359  00000-0 -67291-4 0  9997,2 51799  53.2178  28.7372 0001783  82.6329 277.4865 15.08836753113636,6917.89,95.438,540.989,538.522,0.0
51799.0,STARLINK-3637,PAYLOAD,2024-03-09 14:12:09,15.08851053,0.0001758,53.2172,26.655,81.9571,278.162,0.00078473,0.00012227,0.0,0 STARLINK-3637,1 51799U 22017AH  24069.59177998  .00012227  00000-0  78473-3 0  9995,2 51799  53.2172  26.6550 0001758  81.9571 278.1620 15.08851053113703,6917.847,95.437,540.928,538.495,0.0
51799.0,STARLINK-3637,PAYLOAD,2024-03-10 02:55:15,15.0884312,0.0001438,53.2171,24.2765,83.5054,276.6102,0.00065708,0.00010186,0.0,0 STARLINK-3637,1 51799U 22017AH  24070.12170190  .00010186  00000-0  65708-3 0  9992,2 51799  53.2171  24.2765 0001438  83.5054 276.6102 15.08843120113785,6917.871,95.437,540.731,538.741,0.0
51799.0,STARLINK-3637,PAYLOAD,2024-03-10 14:02:57,15.08841832,0.0001381,53.217,22.1958,88.0942,272.0209,0.00048005,7.361e-05,0.0,0 STARLINK-3637,1 51799U 22017AH  24070.58538286  .00007361  00000-0  48005-3 0  9998,2 51799  53.2170  22.1958 0001381  88.0942 272.0209 15.08841832113852,6917.875,95.437,540.695,538.784,0.0
51799.0,STARLINK-3637,PAYLOAD,2024-03-11 04:21:25,15.08840439,0.0001401,53.2172,19.5175,95.3329,264.7824,0.00016165,2.286e-05,0.0,0 STARLINK-3637,1 51799U 22017AH  24071.18154432  .00002286  00000-0  16165-3 0  9995,2 51799  53.2172  19.5175 0001401  95.3329 264.7824 15.08840439113941,6917.879,95.438,540.713,538.775,0.0
51799.0,STARLINK-3637,PAYLOAD,2024-03-11 13:53:43,15.08854939,0.0001405,53.2178,17.732,97.2173,262.8979,0.0003933,5.979e-05,0.0,0 STARLINK-3637,1 51799U 22017AH  24071.57897839  .00005979  00000-0  39330-3 0  9994,2 51799  53.2178  17.7320 0001405  97.2173 262.8979 15.08854939114009,6917.835,95.437,540.672,538.728,0.0
51799.0,STARLINK-3637,PAYLOAD,2024-03-12 05:47:35,15.08841366,0.000151,53.218,14.7608,91.0189,269.0976,0.00014479,2.017e-05,0.0,0 STARLINK-3637,1 51799U 22017AH  24072.24138435  .00002017  00000-0  14479-3 0  9996,2 51799  53.2180  14.7608 0001510  91.0189 269.0976 15.08841366114101,6917.876,95.437,540.786,538.697,0.0
51799.0,STARLINK-3637,PAYLOAD,2024-03-12 13:44:31,15.08847604,0.0001526,53.2185,13.2744,91.5191,268.5976,0.00024688,3.644e-05,0.0,0 STARLINK-3637,1 51799U 22017AH  24072.57258210  .00003644  00000-0  24688-3 0  9996,2 51799  53.2185  13.2744 0001526  91.5191 268.5976 15.08847604114156,6917.857,95.437,540.778,538.666,0.0
51799.0,STARLINK-3637,PAYLOAD,2024-03-13 02:27:36,15.08843964,0.0001523,53.2188,10.8952,105.8397,254.2763,9.1835e-05,1.174e-05,0.0,0 STARLINK-3637,1 51799U 22017AH  24073.10250335  .00001174  00000-0  91835-4 0  9991,2 51799  53.2188  10.8952 0001523 105.8397 254.2763 15.08843964114237,6917.868,95.437,540.787,538.68,0.0
51799.0,STARLINK-3637,PAYLOAD,2024-03-13 19:56:51,15.08839656,0.0001585,53.2194,7.6239,113.174,246.942,0.00041614,6.341e-05,0.0,0 STARLINK-3637,1 51799U 22017AH  24073.83114641  .00006341  00000-0  41614-3 0  9990,2 51799  53.2194   7.6239 0001585 113.1740 246.9420 15.08839656114341,6917.881,95.438,540.843,538.65,0.0
51799.0,STARLINK-3637,PAYLOAD,2024-03-14 05:29:09,15.08843794,0.0001553,53.2184,5.8392,121.2116,238.9029,0.00013614,1.88e-05,0.0,0 STARLINK-3637,1 51799U 22017AH  24074.22858178  .00001880  00000-0  13614-3 0  9996,2 51799  53.2184   5.8392 0001553 121.2116 238.9029 15.08843794114403,6917.869,95.437,540.808,538.659,0.0
51799.0,STARLINK-3637,PAYLOAD,2024-03-15 00:33:47,15.08835697,0.0001511,53.2182,2.2692,122.282,237.8319,1.9829e-05,2.8e-07,0.0,0 STARLINK-3637,1 51799U 22017AH  24075.02346589  .00000028  00000-0  19829-4 0  9991,2 51799  53.2182   2.2692 0001511 122.2820 237.8319 15.08835697114528,6917.894,95.438,540.804,538.713,0.0
51799.0,STARLINK-3637,PAYLOAD,2024-03-15 22:49:11,15.08836794,0.0001211,53.2189,358.1078,108.8208,251.2916,4.5983e-05,4.44e-06,0.0,0 STARLINK-3637,1 51799U 22017AH  24075.95083109  .00000444  00000-0  45983-4 0  9991,2 51799  53.2189 358.1078 0001211 108.8208 251.2916 15.08836794114660,6917.89,95.438,540.593,538.917,0.0
51799.0,STARLINK-3637,PAYLOAD,2024-03-16 00:24:34,15.08837081,0.0001212,53.2189,357.8104,108.5052,251.6071,4.4082e-05,4.14e-06,0.0,0 STARLINK-3637,1 51799U 22017AH  24076.01707090  .00000414  00000-0  44082-4 0  9997,2 51799  53.2189 357.8104 0001212 108.5052 251.6071 15.08837081114678,6917.889,95.438,540.593,538.916,0.0
51799.0,STARLINK-3637,PAYLOAD,2024-03-16 17:53:49,15.08836568,0.0001116,53.219,354.5413,106.2109,253.9006,0.00010414,1.37e-05,0.0,0 STARLINK-3637,1 51799U 22017AH  24076.74571176  .00001370  00000-0  10414-3 0  9994,2 51799  53.2190 354.5413 0001116 106.2109 253.9006 15.08836568114782,6917.891,95.438,540.528,538.984,0.0
51799.0,STARLINK-3637,PAYLOAD,2024-03-16 22:39:58,15.08835924,0.0001098,53.219,353.6487,102.9685,257.143,0.00011892,1.605e-05,0.0,0 STARLINK-3637,1 51799U 22017AH  24076.94443275  .00001605  00000-0  11892-3 0  9996,2 51799  53.2190 353.6487 0001098 102.9685 257.1430 15.08835924114810,6917.893,95.438,540.517,538.998,0.0
51799.0,STARLINK-3637,PAYLOAD,2024-03-17 03:26:08,15.08838056,0.0001166,53.2188,352.7563,108.9912,251.1207,0.00014047,1.948e-05,0.0,0 STARLINK-3637,1 51799U 22017AH  24077.14315144  .00001948  00000-0  14047-3 0  9997,2 51799  53.2188 352.7563 0001166 108.9912 251.1207 15.08838056114845,6917.886,95.438,540.558,538.945,0.0
51799.0,STARLINK-3637,PAYLOAD,2024-03-17 22:30:45,15.08842895,0.0001162,53.2187,349.1877,106.2253,253.8867,0.00012121,1.642e-05,0.0,0 STARLINK-3637,1 51799U 22017AH  24077.93802956  .00001642  00000-0  12121-3 0  9998,2 51799  53.2187 349.1877 0001162 106.2253 253.8867 15.08842895114967,6917.872,95.437,540.54,538.933,0.0
51799.0,STARLINK-3637,PAYLOAD,2024-03-18 03:16:54,15.08846707,0.0001168,53.2187,348.2954,102.4571,257.6551,0.00015386,2.162e-05,0.0,0 STARLINK-3637,1 51799U 22017AH  24078.13674647  .00002162  00000-0  15386-3 0  9999,2 51799  53.2187 348.2954 0001168 102.4571 257.6551 15.08846707114991,6917.86,95.437,540.533,538.917,0.0
51799.0,STARLINK-3637,PAYLOAD,2024-03-18 22:21:32,15.08846673,0.0001183,53.2187,344.7266,98.5072,261.6054,9.8212e-05,1.276e-05,0.0,0 STARLINK-3637,1 51799U 22017AH  24078.93162602  .00001276  00000-0  98212-4 0  9995,2 51799  53.2187 344.7266 0001183  98.5072 261.6054 15.08846673115116,6917.86,95.437,540.543,538.907,0.0
51799.0,STARLINK-3637,PAYLOAD,2024-03-19 03:07:41,15.08850016,0.0001181,53.2189,343.8342,98.1303,261.9823,0.00011775,1.587e-05,0.0,0 STARLINK-3637,1 51799U 22017AH  24079.13034337  .00001587  00000-0  11775-3 0  9994,2 51799  53.2189 343.8342 0001181  98.1303 261.9823 15.08850016115140,6917.85,95.437,540.532,538.898,0.0
51799.0,STARLINK-3637,PAYLOAD,2024-03-19 22:12:18,15.08853278,0.0001282,53.2197,340.2629,81.743,278.3707,9.5831e-05,1.238e-05,0.0,0 STARLINK-3637,1 51799U 22017AH  24079.92521842  .00001238  00000-0  95831-4 0  9992,2 51799  53.2197 340.2629 0001282  81.7430 278.3707 15.08853278115268,6917.84,95.437,540.592,538.818,0.0
